[Satellite]
VERSION=1.1
NAME=I-INSPIRE II
NICKNAME=I-INSPIRE II
TLE1=1 42731U 98067ML  17185.88219694  .00009006  00000-0  13522-3 0  9997
TLE2=2 42731  51.6397 309.7799 0007949 325.5492  34.4983 15.55684160  6090
